name,eircode,latitude,longitude,postal_town
Abbeyville,K36,53.42894,-6.18436,Malahide
Abbotstown,D15,53.38835,-6.3667,Dublin
Adamstown,K78,53.33468,-6.45623,Lucan
Aderrig,K78,53.33886,-6.48611,Lucan
Aghfarrell,D24,53.23009,-6.4183,Dublin
Allagour,D24,53.24266,-6.37336,Dublin
Allenswood,K78,53.37906,-6.4667,Lucan
Annaghaskin,A98,53.21081,-6.17364,Bray
Annfield,D15,53.37399,-6.4073,Dublin
Annsbrook,A41,53.52455,-6.23383,Ballyboughal
Ardgillan Demesne,K34,53.58781,-6.16041,Skerries
Ardla,K34,53.5753,-6.13667,Skerries
Artane,D05,53.383,-6.20514,Dublin
Ashfield,D22,53.31218,-6.3801,Dublin
Ashtown,D07,53.37251,-6.33164,Dublin
Aske,A98,53.21904,-6.12379,Bray
Astagob,D20,53.36181,-6.39599,Dublin
Athgoe,D22,53.28526,-6.51285,Dublin
Athgoe North,D22,53.29087,-6.52492,Dublin
Athgoe South,D22,53.28451,-6.5306,Dublin
Auburn,K36,53.44248,-6.18702,Malahide
Aungierstown And Ballybane,D22,53.3138,-6.45259,Dublin
Backstown,W23,53.34694,-6.48843,Maynooth
Backwestonpark,W23,53.35318,-6.49025,Maynooth
Badgerhill,W91,53.25133,-6.52008,Naas
Balally,D16,53.27512,-6.23575,Dublin
Balbriggan,K32,53.60832,-6.18208,Balbriggan
Balcarrick,K36,53.48112,-6.12612,Malahide
Balcultry,K67,53.47389,-6.28957,Swords
Balcunnin,K34,53.5588,-6.15237,Skerries
Balcurris,D11,53.40694,-6.28097,Dublin
Baldongan,K45,53.55286,-6.1331,Lusk
Baldonnell Little,D22,53.30298,-6.4341,Dublin
Baldonnell Lower,D22,53.30712,-6.43626,Dublin
Baldonnell Upper,D22,53.30225,-6.44868,Dublin
Baldoyle,D13,53.39487,-6.13739,Dublin
Baldrumman,K45,53.5369,-6.21862,Lusk
Baldurgan,A41,53.50782,-6.25425,Ballyboughal
Baldwinstown,A42,53.56552,-6.35212,Garristown
Balgaddy,K78,53.34085,-6.42423,Lucan
Balgriffin,D13,53.40969,-6.17656,Dublin
Balgriffin Park,D13,53.40791,-6.17391,Dublin
Balheary,K67,53.48314,-6.23676,Swords
Balheary Demesne,K67,53.47231,-6.22098,Swords
Ballaghstown,K45,53.54665,-6.14214,Lusk
Ballalease North,K36,53.48932,-6.14079,Malahide
Ballalease South,K36,53.48115,-6.14193,Malahide
Ballalease West,K36,53.4872,-6.14911,Malahide
Balleally East,K45,53.51046,-6.16339,Lusk
Balleally West,K45,53.50978,-6.17272,Lusk
Ballinascorney Lower,D24,53.25154,-6.38124,Dublin
Ballinascorney Upper,D24,53.23299,-6.40424,Dublin
Ballinclea,A96,53.26783,-6.12596,Glenageary
Ballinteer,D16,53.27462,-6.25354,Dublin
Ballisk,K36,53.48619,-6.14365,Malahide
Ballisk Common,K36,53.49146,-6.14907,Malahide
Ballough,K45,53.53149,-6.19951,Lusk
Ballsbridge,D04,53.32887,-6.23053,Dublin
Ballustree,K34,53.54215,-6.09088,Skerries
Ballybane,D22,53.321,-6.45023,Dublin
Ballybetagh,D18,53.22246,-6.20074,Dublin
Ballyboden,D16,53.28232,-6.29261,Dublin
Ballycoolen,D15,53.40773,-6.3649,Dublin
Ballycorus,D18,53.22911,-6.17458,Dublin
Ballycragh,D24,53.27654,-6.34444,Dublin
Ballycullen,D16,53.27303,-6.32699,Dublin
Ballydowd,K78,53.35732,-6.42579,Lucan
Ballyedmonduff,D18,53.24205,-6.23379,Dublin
Ballyfermot,D10,53.34225,-6.35356,Dublin
Ballyfermot Upper,D10,53.34581,-6.37818,Dublin
Ballyhack,K67,53.46695,-6.31592,Swords
Ballyhavil,K34,53.55938,-6.10138,Skerries
Ballykea,K34,53.54853,-6.11116,Skerries
Ballymacartle,K67,53.42514,-6.19206,Swords
Ballymadrough,K36,53.47285,-6.19065,Malahide
Ballymadun,A84,53.53525,-6.40515,Ashbourne
Ballymaguire,K45,53.54712,-6.18107,Lusk
Ballymaice,D24,53.25452,-6.38586,Dublin
Ballymakaily,K78,53.3289,-6.46049,Lucan
Ballyman,A98,53.20796,-6.15248,Bray
Ballymana,D24,53.26035,-6.3942,Dublin
Ballymanaggin,D22,53.33189,-6.39243,Dublin
Ballymastone,K36,53.48539,-6.13682,Malahide
Ballymorefinn,D24,53.2321,-6.37426,Dublin
Barnacullia,D18,53.25345,-6.23708,Dublin
Barnageeragh,K32,53.58311,-6.15,Balbriggan
Barnanstown,A45,53.51552,-6.30107,Oldtown
Barnaslingan,D18,53.2195,-6.17668,Dublin
Barnhill,D15,53.38841,-6.456,Dublin
Barrysparks,K67,53.44892,-6.20993,Swords
Baskin,K67,53.42405,-6.20451,Swords
Bawnoges,D22,53.3219,-6.41237,Dublin
Bay,D15,53.42399,-6.35834,Dublin
Beau,K56,53.51792,-6.13513,Rush
Beaumont,D09,53.38569,-6.22867,Dublin
Beaverstown,K36,53.49553,-6.15563,Malahide
Bedlesshill,D24,53.30582,-6.4083,Dublin
Beechwood,K36,53.4297,-6.148,Malahide
Belcamp,D17,53.40851,-6.19441,Dublin
Beldaragh,K32,53.5667,-6.25903,Balbriggan
Belgard,D24,53.30277,-6.40016,Dublin
Belgard Deer Park,D24,53.2488,-6.3915,Dublin
Belgee,K32,53.57405,-6.23488,Balbriggan
Belgree,D15,53.43919,-6.39525,Dublin
Belinstown,K67,53.4906,-6.21083,Swords
Bettyville,A41,53.54023,-6.25337,Ballyboughal
Bishopland,K45,53.51707,-6.14072,Lusk
Bishopswood,D11,53.43949,-6.33364,Dublin
Blackhall,K32,53.59159,-6.1836,Balbriggan
Blackland,K34,53.54418,-6.10977,Skerries
Blackrock,A94,53.30079,-6.17708,Blackrock
Blackthorn,D18,53.27723,-6.2174,Dublin
Blakestown,D15,53.39771,-6.41079,Dublin
Blanchardstown,D15,53.3842,-6.37598,Dublin
Bluebell,D12,53.32934,-6.33486,Dublin
Blundelstown,D22,53.30525,-6.47554,Dublin
Boggyheary,K67,53.47668,-6.30308,Swords
Bohammer,D17,53.42099,-6.18847,Dublin
Boherboy,D24,53.27568,-6.43902,Dublin
Bohernabreena,D24,53.26597,-6.35801,Dublin
Booterstown,A94,53.30453,-6.206,Blackrock
Boranaraltry,D18,53.21528,-6.26257,Dublin
Borranstown,A84,53.54506,-6.41829,Ashbourne
Bowhill,K32,53.58666,-6.20868,Balbriggan
Brackenstown,K67,53.45386,-6.26024,Swords
Brazil,K67,53.4599,-6.26128,Swords
Bremore,K32,53.62033,-6.20742,Balbriggan
Brenanstown,D18,53.25455,-6.16121,Dublin
Brideswell Commons,D22,53.31516,-6.396,Dublin
Bridetree,K45,53.51561,-6.17438,Lusk
Brittas Big,D24,53.23419,-6.45841,Dublin
Brittas Little,D24,53.23336,-6.47164,Dublin
Broadmeadow,K67,53.47246,-6.23401,Swords
Brockey,D18,53.21109,-6.23126,Dublin
Broghan,D11,53.4367,-6.32902,Dublin
Brooklawn,D20,53.35867,-6.38891,Dublin
Broomfield,A41,53.52922,-6.25148,Ballyboughal
Brownstown,K67,53.49906,-6.24282,Swords
Buckandhounds,D22,53.30954,-6.40748,Dublin
Bullock,A96,53.28213,-6.11845,Glenageary
Burgage,D17,53.41215,-6.18912,Dublin
Burrow,K36,53.50405,-6.12156,Malahide
Cabinteely,D18,53.26495,-6.15956,Dublin
Cabra,D07,53.3674,-6.30234,Dublin
Cabragh,A45,53.50994,-6.31619,Oldtown
Calliaghstown,A45,53.53465,-6.28584,Oldtown
Calliaghstown Lower,D24,53.24842,-6.50305,Dublin
Calliaghstown Upper,D24,53.24685,-6.49214,Dublin
Cappagh,K78,53.3323,-6.41117,Lucan
Cappoge,D11,53.39944,-6.33788,Dublin
Cardiffsbridge,D11,53.38119,-6.32233,Dublin
Carmanhall,D18,53.27282,-6.20928,Dublin
Carmanhall And Leopardstown,D18,53.26778,-6.19841,Dublin
Carnhill,K34,53.54286,-6.09845,Skerries
Carpenterstown,D15,53.37483,-6.38909,Dublin
Carrickhill,D13,53.43271,-6.13336,Dublin
Carrickmines,D18,53.25008,-6.17956,Dublin
Carrickmines Great,D18,53.24721,-6.18286,Dublin
Carrickmines Little,D18,53.25926,-6.18628,Dublin
Carrigeen,D24,53.26837,-6.49603,Dublin
Carysfort,A94,53.29379,-6.18831,Blackrock
Castaheany,D15,53.39898,-6.43199,Dublin
Castlefarm,K67,53.47602,-6.31704,Swords
Castleknock,D15,53.37365,-6.35842,Dublin
Castleland,K32,53.59938,-6.1796,Balbriggan
Castlewarden,W23,53.27497,-6.53351,Maynooth
Causestown,K45,53.53388,-6.174,Lusk
Censure,D13,53.36394,-6.07733,Dublin
Chapelizod,D20,53.34923,-6.34386,Dublin
Charlestown,D11,53.40241,-6.3065,Dublin
Charstown,A84,53.54146,-6.39292,Ashbourne
Cheeverstown,D24,53.29693,-6.41119,Dublin
Cherryhound,D11,53.43325,-6.35082,Dublin
Cherrywood,D18,53.24316,-6.1433,Dublin
Churchtown,D14,53.29361,-6.24725,Dublin
Churchtown Lower,D14,53.2978,-6.24971,Dublin
Cloghran,K67,53.4333,-6.22663,Swords
Clonard,K32,53.6056,-6.21655,Balbriggan
Clonburris Great,D22,53.32614,-6.41448,Dublin
Clonburris Little,K78,53.33128,-6.42298,Lucan
Clondalkin,D22,53.32106,-6.39399,Dublin
Clonsilla,D15,53.38307,-6.41032,Dublin
Clonskeagh,D06,53.31603,-6.23747,Dublin
Clonswords,A41,53.534,-6.27654,Ballyboughal
Clontarf,D03,53.36602,-6.20451,Dublin
Clutterland,D22,53.32035,-6.45939,Dublin
Coldwinters,K67,53.41247,-6.3168,Swords
Colecot,K45,53.52694,-6.21992,Lusk
Colganstown,D22,53.3118,-6.52273,Dublin
Collegeland,D24,53.29139,-6.4643,Dublin
Collinstown,K45,53.5443,-6.16812,Lusk
Commons,K32,53.60935,-6.23111,Balbriggan
Commons East,K67,53.45133,-6.21114,Swords
Commons Little,D22,53.29924,-6.48905,Dublin
Commons Lower,A42,53.58015,-6.37632,Garristown
Commons Upper,A42,53.57818,-6.3953,Garristown
Commons West,K67,53.46188,-6.23091,Swords
Cookstown,A41,53.49976,-6.25909,Ballyboughal
Coolmine,D24,53.27032,-6.47164,Dublin
Coolock,D05,53.38823,-6.19922,Dublin
Coolquoy,D11,53.45579,-6.35077,Dublin
Corballis,K67,53.42737,-6.23812,Swords
Corbally,D24,53.2682,-6.42653,Dublin
Corduff,K45,53.51136,-6.18901,Lusk
Cornelscourt,D18,53.27038,-6.16699,Dublin
Cornerpark,D22,53.30178,-6.49577,Dublin
Cornstown,A84,53.52543,-6.38559,Ashbourne
Corrageen,D24,53.25197,-6.36159,Dublin
Corrstown,K67,53.45748,-6.3206,Swords
Cottrelstown,A45,53.53895,-6.3369,Oldtown
Coultry,K67,53.42178,-6.26553,Swords
Court,D15,53.43763,-6.38977,Dublin
Courtlough,K32,53.56487,-6.20061,Balbriggan
Cremona,K67,53.4501,-6.22881,Swords
Crockaunadreenagh,D24,53.25855,-6.47821,Dublin
Crockshane,D24,53.27255,-6.48542,Dublin
Crooksling,D24,53.25966,-6.44615,Dublin
Crowscastle,K67,53.44783,-6.22187,Swords
Cruagh,D16,53.24177,-6.30653,Dublin
Cruiserath,D15,53.41671,-6.37825,Dublin
Crumlin,D12,53.31366,-6.31579,Dublin
Dalkey,A96,53.27837,-6.10729,Glenageary
Dalkey Commons,A96,53.27254,-6.09969,Glenageary
Dalkey Island,A96,53.27162,-6.08486,Glenageary
Damastown,D15,53.41351,-6.42793,Dublin
Deansgrange,A94,53.28612,-6.16737,Blackrock
Deansrath,D22,53.32185,-6.42304,Dublin
Dellabrown,K34,53.55305,-6.11425,Skerries
Dennis' Fields,K32,53.57504,-6.19195,Balbriggan
Dermotstown,K32,53.58856,-6.22989,Balbriggan
Diswellstown,D15,53.36971,-6.39457,Dublin
Doddsborough,K78,53.34857,-6.46476,Lucan
Dollards,K67,53.49033,-6.24817,Swords
Dollymount,D03,53.36598,-6.17425,Dublin
Dolphins Barn,D08,53.33354,-6.29147,Dublin
Donabate,K36,53.48138,-6.15697,Malahide
Donaghmede,D13,53.39864,-6.16165,Dublin
Donnybrook,D04,53.31926,-6.23202,Dublin
Donnycarney,D05,53.37551,-6.21878,Dublin
Doolagh,K32,53.60883,-6.27053,Balbriggan
Dooroge,A41,53.51309,-6.26195,Ballyboughal
Drimnagh,D12,53.3237,-6.34875,Dublin
Drinan,K67,53.44461,-6.20236,Swords
Drishoge,A45,53.50818,-6.30008,Oldtown
Dromcondra,D09,53.37062,-6.25376,Dublin
Drumanagh,K34,53.54016,-6.08334,Skerries
Drumlattery,K34,53.55606,-6.1145,Skerries
Drummans,K32,53.62609,-6.25115,Balbriggan
Drummartin,D14,53.28825,-6.23461,Dublin
Drumnigh,D13,53.41381,-6.16181,Dublin
Dubber,D11,53.41367,-6.30375,Dublin
Dublin,D01,53.34944,-6.26008,Dublin
Dublin 2,D02,53.34073,-6.25824,Dublin
Dunbro,K67,53.43158,-6.2831,Swords
Dundrum,D14,53.28914,-6.24327,Dublin
Dunganstown,K45,53.51963,-6.18944,Lusk
Dunleary,A96,53.29279,-6.14194,Glenageary
Dunmucky,K67,53.47033,-6.34867,Swords
Dunsink,D15,53.3853,-6.349,Dublin
Dunsoghly,K67,53.4293,-6.32195,Swords
Edenmore,D05,53.39069,-6.18393,Dublin
Edmondstown,D16,53.27468,-6.29669,Dublin
Effelstown,K45,53.52234,-6.14643,Lusk
Ellistown,A41,53.53277,-6.26464,Ballyboughal
Esker North,K78,53.35336,-6.43788,Lucan
Esker South,K78,53.34304,-6.43744,Lucan
Fairview,D22,53.31899,-6.40998,Dublin
Farmersvale,W91,53.25474,-6.53159,Naas
Farranboley,D14,53.30497,-6.2455,Dublin
Feltrim,K67,53.43571,-6.19468,Swords
Fieldstown,K67,53.49775,-6.3264,Swords
Finglas,D11,53.39032,-6.29841,Dublin
Finnstown,K78,53.33945,-6.46082,Lucan
Firhouse,D24,53.28173,-6.34215,Dublin
Flacketstown,K32,53.56861,-6.30174,Balbriggan
Flemingtown,K32,53.61732,-6.21799,Balbriggan
Folkstown Little,K32,53.59745,-6.21438,Balbriggan
Folly,A45,53.52445,-6.36491,Oldtown
Fonthill,D20,53.3593,-6.4028,Dublin
Forrestfields,K67,53.45137,-6.23476,Swords
Forrest Great,K67,53.44257,-6.26191,Swords
Forrest Little,K67,53.43732,-6.24712,Swords
Fortunestown,D24,53.28372,-6.43112,Dublin
Fortyacres,K32,53.60541,-6.26617,Balbriggan
Fosterstown North,K67,53.44585,-6.23877,Swords
Fosterstown South,K67,53.44021,-6.23884,Swords
Fox-And-Geese,D22,53.32108,-6.35837,Dublin
Fox-And-Geese Common,D12,53.32485,-6.3618,Dublin
Fox & Geese,D12,53.32756,-6.3698,Dublin
Foxrock,D18,53.26858,-6.18299,Dublin
Gallanstown,D15,53.43756,-6.38038,Dublin
Galloping Green North,A94,53.28232,-6.18856,Blackrock
Galloping Green South,A94,53.27525,-6.19505,Blackrock
Gardenershill,K32,53.59668,-6.18805,Balbriggan
Garranswood,D22,53.30749,-6.38134,Dublin
Garristown,A42,53.56633,-6.38971,Garristown
Gerrardstown,A41,53.54037,-6.27427,Ballyboughal
Gibbons,D24,53.27756,-6.42017,Dublin
Gibbonsmoor,K32,53.5849,-6.19664,Balbriggan
Gibraltar,D22,53.3138,-6.40765,Dublin
Glasnevin,D11,53.38283,-6.27629,Dublin
Glasnevin North,D11,53.39065,-6.27935,Dublin
Glassamucky,D24,53.24612,-6.36619,Dublin
Glassamucky Brakes,D24,53.22429,-6.32696,Dublin
Glassamucky Mountain,D24,53.22531,-6.31733,Dublin
Glassavullaun,D24,53.21818,-6.36526,Dublin
Glasthule,A96,53.28734,-6.12736,Glenageary
Glebe,D18,53.24226,-6.20305,Dublin
Glebe East,A42,53.57444,-6.35334,Garristown
Glebe North,K32,53.59853,-6.18631,Balbriggan
Glebe South,K32,53.5842,-6.19369,Balbriggan
Glebe West,A42,53.56787,-6.40303,Garristown
Glenagarey,A96,53.28261,-6.13208,Glenageary
Glenamuck North,D18,53.24553,-6.19609,Dublin
Glenamuck South,D18,53.23932,-6.19112,Dublin
Glenaraneen,D24,53.2432,-6.46086,Dublin
Glencullen,D18,53.21816,-6.22695,Dublin
Grange,K34,53.57134,-6.15347,Skerries
Greatcommon,K45,53.53655,-6.16084,Lusk
Greenfields,K67,53.46157,-6.20654,Swords
Greenhills,D12,53.31229,-6.33639,Dublin
Greenoge,D24,53.29498,-6.47846,Dublin
Greenwood,K67,53.43037,-6.19644,Swords
Hacketstown,K34,53.56246,-6.11553,Skerries
Haystown,K45,53.53331,-6.12317,Lusk
Hazardstown,K32,53.59063,-6.26842,Balbriggan
Hazelbrook,K36,53.42868,-6.15927,Malahide
Hazelhatch,W23,53.3222,-6.51895,Maynooth
Heathtown,K34,53.55143,-6.16297,Skerries
Hedgestown,K45,53.55741,-6.21387,Lusk
Hermitage,K78,53.3617,-6.41419,Lucan
Highdownhill,D22,53.28928,-6.51131,Dublin
Hilltown,K67,53.45346,-6.24505,Swords
Hollystown,D15,53.42858,-6.38206,Dublin
Hollywood,D15,53.43081,-6.37318,Dublin
Howth,D13,53.38585,-6.06469,Dublin
Howth Demesne,D13,53.38482,-6.09164,Dublin
Huntstown,K67,53.42864,-6.26636,Swords
Hynespark,K32,53.5766,-6.19957,Balbriggan
Hynestown,D22,53.31265,-6.50152,Dublin
Inch,K32,53.59068,-6.19592,Balbriggan
Inchicore,D08,53.33542,-6.32702,Dublin
Intake,A94,53.30705,-6.19047,Blackrock
Ireland's Eye,D13,53.40516,-6.06432,Dublin
Irishtown,D22,53.35012,-6.39325,Dublin
Islandbridge,D08,53.34622,-6.30822,Dublin
Jamestown,D18,53.24881,-6.20494,Dublin
Jobstown,D24,53.27606,-6.39478,Dublin
Johnstown,D11,53.4137,-6.32923,Dublin
Jordanstown,D24,53.29918,-6.46991,Dublin
Kerrymount,D18,53.26186,-6.18184,Dublin
Kilbarrack Lower,D13,53.38808,-6.1451,Dublin
Kilbarrack Upper,D05,53.39044,-6.15578,Dublin
Kilbarrick,D05,53.38374,-6.15255,Dublin
Kilbogget,A96,53.26034,-6.14024,Glenageary
Kilbride,D22,53.3074,-6.45064,Dublin
Kilcarbery,D22,53.31457,-6.43785,Dublin
Kilcoskan,D11,53.46545,-6.3342,Dublin
Kilcrea,K36,53.47268,-6.16455,Malahide
Kildonan,D11,53.40298,-6.3218,Dublin
Kilgobbin,D18,53.25706,-6.21728,Dublin
Killakee,D16,53.24432,-6.32387,Dublin
Killalane,K34,53.56901,-6.16784,Skerries
Killamonan,D11,53.42976,-6.36388,Dublin
Killeen,A45,53.50886,-6.30859,Oldtown
Killester,D03,53.37156,-6.20263,Dublin
Killinardan,D24,53.26714,-6.39822,Dublin
Killiney,A96,53.25487,-6.12251,Glenageary
Killininny,D24,53.27433,-6.35546,Dublin
Kill Of The Grange,A94,53.27968,-6.16148,Blackrock
Killossery,K67,53.48243,-6.31091,Swords
Killougher,K32,53.59001,-6.25471,Balbriggan
Kilmacree,D11,53.43838,-6.31689,Dublin
Kilmactalway,D22,53.30849,-6.46611,Dublin
Kilmacud,A94,53.28457,-6.20935,Blackrock
Kilmacud East,A94,53.28339,-6.21174,Blackrock
Kilmacud West,D14,53.28644,-6.22345,Dublin
Kilmahuddrick,D22,53.32689,-6.43155,Dublin
Kilmainham,K32,53.5839,-6.15594,Balbriggan
Kilmartin,D15,53.43192,-6.40717,Dublin
Kilmashogue,D16,53.25301,-6.27596,Dublin
Kilmore,D05,53.39298,-6.22056,Dublin
Kilmore Big,D17,53.40391,-6.23419,Dublin
Kilnamanagh,D24,53.30674,-6.35715,Dublin
Kilsallaghan,K67,53.47588,-6.31906,Swords
Kilshane,D11,53.42364,-6.33882,Dublin
Kilsough North,K32,53.60023,-6.17377,Balbriggan
Kilsough South,K32,53.59567,-6.18012,Balbriggan
Kiltalown,D24,53.27149,-6.40605,Dublin
Kingstown,K45,53.52612,-6.14459,Lusk
Kingswood,D24,53.30314,-6.41392,Dublin
Kinoud,A41,53.54648,-6.2593,Ballyboughal
Kinsaley,K36,53.42798,-6.17012,Malahide
Knocklyon,D16,53.28219,-6.31621,Dublin
Knockmitten,D22,53.32403,-6.37722,Dublin
Knocknagin,K32,53.62857,-6.22054,Balbriggan
Knocksedan,K67,53.4515,-6.26844,Swords
Lambay Island,K56,53.49057,-6.02262,Rush
Lane,K34,53.55783,-6.09496,Skerries
Littlepace,D15,53.40552,-6.43375,Dublin
Loughbarn,K34,53.56282,-6.16483,Skerries
Lough Common,K45,53.52513,-6.1612,Lusk
Loughland,K34,53.562,-6.12611,Skerries
Loughlinstown,D18,53.25081,-6.1412,Dublin
Loughmain,K32,53.56744,-6.28489,Balbriggan
Loughshinny,K34,53.5484,-6.08562,Skerries
Loughtown Lower,D22,53.32054,-6.50457,Dublin
Loughtown Upper,D22,53.3213,-6.48848,Dublin
Lucan,K78,53.35721,-6.44986,Lucan
Lucan And Pettycannon,K78,53.35285,-6.45936,Lucan
Lucan Demesne,W23,53.36034,-6.47556,Maynooth
Lugg,D24,53.26089,-6.45781,Dublin
Lugmore,D24,53.265,-6.41265,Dublin
Lusk,K45,53.52633,-6.16588,Lusk
Mabestown,K36,53.44105,-6.17496,Malahide
Macetown Middle,D15,53.41569,-6.41321,Dublin
Macetown North,D15,53.41797,-6.4105,Dublin
Macetown South,D15,53.4132,-6.41082,Dublin
Magillstown,K67,53.49142,-6.23452,Swords
Mainscourt,A41,53.52235,-6.2543,Ballyboughal
Malahide,K36,53.44709,-6.15347,Malahide
Malahide Demesne,K36,53.44432,-6.16844,Malahide
Malheney,K34,53.5579,-6.18329,Skerries
Mallahow,K32,53.55883,-6.31345,Balbriggan
Mantua,K67,53.46232,-6.21042,Swords
Margaretstown,K34,53.57339,-6.1617,Skerries
Marino,D09,53.36952,-6.23044,Dublin
Marshallstown,K67,53.43878,-6.21352,Swords
Matt,K32,53.59262,-6.22256,Balbriggan
Maynetown,D13,53.41055,-6.14681,Dublin
Meakstown,D11,53.40571,-6.29928,Dublin
Merrion,A94,53.30014,-6.20014,Blackrock
Merryfalls,K67,53.4156,-6.28929,Swords
Middletown,K67,53.41927,-6.20659,Swords
Milestown,K32,53.62043,-6.26619,Balbriggan
Millhead,K67,53.43602,-6.29481,Swords
Milltown,D22,53.31933,-6.47345,Dublin
Miltonsfields,K67,53.45193,-6.22694,Swords
Milverton,K34,53.56788,-6.12922,Skerries
Milverton Demesne,K34,53.56975,-6.14413,Skerries
Mitchelstown,D15,53.41694,-6.35194,Dublin
Moneenalion Commons Lower,D22,53.30187,-6.42982,Dublin
Moneenalion Commons Upper,D22,53.29827,-6.44736,Dublin
Moneyatta Commons,D24,53.2771,-6.44381,Dublin
Monkstown,A96,53.28501,-6.14454,Glenageary
Monkstown Castlefarm,A94,53.2886,-6.15178,Blackrock
Monkstown Housefarm,A94,53.28995,-6.14982,Blackrock
Montpelier,A94,53.29429,-6.16759,Blackrock
Mooreenaruggan,D22,53.31096,-6.38831,Dublin
Mooretown,D15,53.42073,-6.35628,Dublin
Moortown,A45,53.51177,-6.32972,Oldtown
Mountambrose Great,K67,53.46555,-6.28377,Swords
Mountambrose Little,K67,53.46751,-6.2891,Swords
Mountanville,D14,53.29194,-6.22823,Dublin
Mountashton,A94,53.28923,-6.16206,Blackrock
Mountgorry,K67,53.45418,-6.20685,Swords
Mount Merrion,A94,53.29559,-6.2111,Blackrock
Mountmerrion South,A94,53.2887,-6.21482,Blackrock
Mountpelier,D24,53.25038,-6.33956,Dublin
Mountseskin,D24,53.24866,-6.43036,Dublin
Mountstuart,K67,53.47886,-6.29478,Swords
Mulchanstown,A94,53.27897,-6.20839,Blackrock
Mulhuddart,D15,53.40168,-6.39982,Dublin
Mullauns,K78,53.3284,-6.49617,Lucan
Murphystown,D18,53.26531,-6.21133,Dublin
Murragh,A45,53.52478,-6.28824,Oldtown
Nangor,D22,53.32157,-6.43613,Dublin
Naul,K32,53.58747,-6.28036,Balbriggan
Neillstown,K78,53.33626,-6.41147,Lucan
Nevinstown East,K67,53.44109,-6.2222,Swords
Nevinstown West,K67,53.44413,-6.22806,Swords
Nevitt,K45,53.55219,-6.22702,Lusk
Newbarn,K67,53.48688,-6.32258,Swords
Newbridge Demesne,K36,53.48631,-6.17668,Malahide
Newcastle,D22,53.29982,-6.50103,Dublin
Newcastle Demesne,D22,53.29625,-6.52315,Dublin
Newcastle Farm,D22,53.30217,-6.52312,Dublin
Newcastle North,D22,53.30504,-6.51217,Dublin
Newcastle South,D22,53.29633,-6.50358,Dublin
Newhaggard,A42,53.56926,-6.41741,Garristown
Newlands,D22,53.31275,-6.38656,Dublin
Newlands Demesne,D24,53.30833,-6.39726,Dublin
Newpark,D11,53.44686,-6.33377,Dublin
Newtown,D18,53.22998,-6.21831,Dublin
Newtown Blackrock,A94,53.29785,-6.17978,Blackrock
Newtown Castlebyrn,A94,53.28841,-6.17427,Blackrock
Newtowncorduff,K45,53.5218,-6.20255,Lusk
Newtown Little,D14,53.30264,-6.26676,Dublin
Newtown Lower,D24,53.26543,-6.50352,Dublin
Newtownpark,A94,53.28625,-6.17605,Blackrock
Newtown Upper,D24,53.25728,-6.49691,Dublin
Nutstown,A42,53.53973,-6.37497,Garristown
Oberstown,K45,53.5432,-6.19601,Lusk
Oldbawn,D24,53.27785,-6.36454,Dublin
Oldconnaught,A98,53.2125,-6.13318,Bray
Oldcourt,D24,53.26711,-6.34317,Dublin
Oldorchard,D14,53.28945,-6.29924,Dublin
Oldtown,K67,53.47539,-6.24383,Swords
Orlagh,D16,53.26197,-6.33022,Dublin
Outlands,K67,53.46622,-6.23695,Swords
Palmerston,D20,53.35661,-6.37149,Dublin
Palmerston Lower,D20,53.36011,-6.37606,Dublin
Palmerston Upper,D22,53.35474,-6.3901,Dublin
Palmerstown,A45,53.51061,-6.35778,Oldtown
Parnelstown,A41,53.54743,-6.25007,Ballyboughal
Poppintree,D11,53.40017,-6.28526,Dublin
Porterstown,D15,53.37733,-6.40625,Dublin
Portmarnock,K36,53.42327,-6.15202,Malahide
Racecourse Common,K45,53.51961,-6.1635,Lusk
Raheen,D22,53.33691,-6.39233,Dublin
Raheny,K45,53.52896,-6.15053,Lusk
Rahillion,K36,53.49607,-6.13363,Malahide
Rahulk,K67,53.43303,-6.20097,Swords
Rallekaystown,K45,53.54607,-6.15519,Lusk
Ranelagh,D06,53.32685,-6.25708,Dublin
Rath,K67,53.48318,-6.29694,Swords
Rathartan,K45,53.52455,-6.13281,Lusk
Rathbeal,K67,53.47014,-6.26682,Swords
Rathcoole,D24,53.27929,-6.47041,Dublin
Rathcreedan,D24,53.28857,-6.49205,Dublin
Rathfarnham,D14,53.29486,-6.2841,Dublin
Rathgar,D06,53.31889,-6.26916,Dublin
Rathmichael,D18,53.23233,-6.15937,Dublin
Rathmines,D06,53.32131,-6.26569,Dublin
Rathmines Great,D14,53.30581,-6.25524,Dublin
Rathmines Little,D14,53.29996,-6.25908,Dublin
Rathmooney,K45,53.54088,-6.18194,Lusk
Redcow,D22,53.31865,-6.37312,Dublin
Redcowfarm,D20,53.35166,-6.36971,Dublin
Redgap,D24,53.26573,-6.48344,Dublin
Regeens,K45,53.53386,-6.18636,Lusk
Ring,K32,53.58374,-6.218,Balbriggan
Ring Commons,K32,53.58098,-6.22677,Balbriggan
Ringsend,D04,53.34186,-6.22672,Dublin
Ringwood,W23,53.31803,-6.52645,Maynooth
Robinhood,D22,53.31868,-6.34773,Dublin
Robswalls,K36,53.44243,-6.13453,Malahide
Roebuck,D14,53.30347,-6.22656,Dublin
Roganstown,K67,53.48311,-6.27395,Swords
Rogerstown,K45,53.51468,-6.14496,Lusk
Ronanstown,D22,53.33777,-6.40633,Dublin
Rush,K56,53.52567,-6.09115,Rush
Rush Demesne,K56,53.53588,-6.10605,Rush
Saggart,D24,53.28084,-6.44319,Dublin
Saint Catherine's Park,K78,53.36806,-6.47133,Lucan
Saintdoolaghs,D17,53.41429,-6.18477,Dublin
Saint Edmondsbury,K78,53.36436,-6.43797,Lucan
Sainthelens,K36,53.43624,-6.14728,Malahide
Saint Margaret's,K67,53.43109,-6.29827,Swords
Sallynoggin,A96,53.28003,-6.13571,Glenageary
Salmon,K32,53.57017,-6.18336,Balbriggan
Sandyford,D18,53.26997,-6.22493,Dublin
Sandyhill,K67,53.42908,-6.298,Swords
Sandymount,D04,53.33056,-6.21575,Dublin
Santry,D09,53.40201,-6.2383,Dublin
Seapoint,K67,53.46624,-6.19327,Swords
Seatown East,K36,53.4592,-6.20123,Malahide
Seatown West,K67,53.46503,-6.20987,Swords
Sevenparks,K32,53.616,-6.26167,Balbriggan
Shallon,D11,53.44595,-6.32466,Dublin
Shanganagh,D18,53.23373,-6.12089,Dublin
Shanganhill,K67,53.42204,-6.30339,Swords
Shankill,D18,53.22619,-6.13642,Dublin
Skerries,K34,53.58055,-6.10788,Skerries
Stepaside,D18,53.25306,-6.2143,Dublin
Stephenstown,K32,53.59891,-6.20121,Balbriggan
Stillorgan,A94,53.2849,-6.20195,Blackrock
Stillorgan Grove,A94,53.29024,-6.1931,Blackrock
Stillorgan North,A94,53.29066,-6.20793,Blackrock
Stillorgan Park,A94,53.28768,-6.18422,Blackrock
Stillorgan South,A94,53.28597,-6.20271,Blackrock
Stockhole,K67,53.42211,-6.21959,Swords
Stradbrook,A94,53.29304,-6.16893,Blackrock
Streamstown,K36,53.4382,-6.18113,Malahide
Strifeland,K34,53.58111,-6.16482,Skerries
Surgalstown North,K67,53.47109,-6.30375,Swords
Surgalstown South,K67,53.4651,-6.30429,Swords
Sutton,D13,53.38952,-6.1103,Dublin
Sutton North,D13,53.37852,-6.08924,Dublin
Sutton South,D13,53.37021,-6.09392,Dublin
Swords,K67,53.45575,-6.21975,Swords
Swords Demesne,K67,53.45626,-6.21751,Swords
Swords Glebe,K67,53.4575,-6.2252,Swords
Tallaght,D24,53.28881,-6.35571,Dublin